NORAD_CAT_ID,OBJECT_NAME,OBJECT_TYPE,EPOCH,MEAN_MOTION,ECCENTRICITY,INCLINATION,RA_OF_ASC_NODE,ARG_OF_PERICENTER,MEAN_ANOMALY,BSTAR,MEAN_MOTION_DOT,MEAN_MOTION_DDOT,TLE_LINE0,TLE_LINE1,TLE_LINE2,SEMIMAJOR_AXIS,PERIOD,APOGEE,PERIGEE,DECAYED
53795.0,STARLINK-4742,PAYLOAD,2022-09-19 18:00:00,15.73216606,0.0001289,53.2156,224.0716,103.2523,325.8551,0.00021458,0.00029622,0.0,0 STARLINK-4742,1 53795U 22111Y   22262.75001157  .00029622  00000-0  21458-3 0  9990,2 53795  53.2156 224.0716 0001289 103.2523 325.8551 15.73216606  1301,6727.848000000001,91.532,350.58,348.846,0.0
53795.0,STARLINK-4742,PAYLOAD,2022-09-19 22:00:00,15.73250304,0.0001281,53.2157,223.247,107.7193,185.8587,-0.00022113,-0.00031604,0.0,0 STARLINK-4742,1 53795U 22111Y   22262.91667824 -.00031604  00000-0 -22113-3 0  9991,2 53795  53.2157 223.2470 0001281 107.7193 185.8587 15.73250304  1322,6727.752,91.53,350.47900000000016,348.755,0.0
53795.0,STARLINK-4742,PAYLOAD,2022-09-20 14:00:01,15.73206879,8.46e-05,53.216,219.9485,106.2828,5.2292,0.00021801,0.00030095,0.0,0 STARLINK-4742,1 53795U 22111Y   22263.58334491  .00030095  00000-0  21801-3 0  9990,2 53795  53.2160 219.9485 0000846 106.2828   5.2292 15.73206879  1303,6727.876,91.533,350.31,349.171,0.0
53795.0,STARLINK-4742,PAYLOAD,2022-09-20 22:00:01,15.73272115,0.0001032999999999,53.2163,218.2983,112.2127,88.3046,-0.00046425,-0.00065468,0.0,0 STARLINK-4742,1 53795U 22111Y   22263.91668981 -.00065468  00000-0 -46425-3 0  9994,2 53795  53.2163 218.2983 0001033 112.2127  88.3046 15.73272115  1483,6727.69,91.529,350.25,348.86,0.0
53795.0,STARLINK-4742,PAYLOAD,2022-09-21 22:00:00,15.73174299,0.0001211999999999,53.2161,213.35,112.0684,355.1862,0.0003401,0.00047327,0.0,0 STARLINK-4742,1 53795U 22111Y   22264.91667824  .00047327  00000-0  34010-3 0  9999,2 53795  53.2161 213.3500 0001212 112.0684 355.1862 15.73174299  1303,6727.968000000003,91.535,350.649,349.01800000000014,0.0
53795.0,STARLINK-4742,PAYLOAD,2022-09-22 14:00:01,15.73172915,0.0001331999999999,53.2165,210.0512,106.1694,178.9405,0.0001838,0.00025223,0.0,0 STARLINK-4742,1 53795U 22111Y   22265.58334491  .00025223  00000-0  18380-3 0  9997,2 53795  53.2165 210.0512 0001332 106.1694 178.9405 15.73172915  1747,6727.972,91.535,350.7340000000001,348.941,0.0
53795.0,STARLINK-4742,PAYLOAD,2022-09-22 22:00:00,15.73251233,0.0001337,53.2168,208.4015,110.4203,263.5903,-0.00048041,-0.0006765,0.0,0 STARLINK-4742,1 53795U 22111Y   22265.91667824 -.00067650  00000-0 -48041-3 0  9992,2 53795  53.2168 208.4015 0001337 110.4203 263.5903 15.73251233  1305,6727.749,91.53,350.514,348.715,0.0
53795.0,STARLINK-4742,PAYLOAD,2022-09-23 14:00:01,15.7319671,0.000128,53.2167,205.1025,109.2939,82.6126,-3.4208e-05,-5.417e-05,0.0,0 STARLINK-4742,1 53795U 22111Y   22266.58334491 -.00005417  00000-0 -34208-4 0  9991,2 53795  53.2167 205.1025 0001280 109.2939  82.6126 15.73196710  1303,6727.905,91.533,350.631,348.908,0.0
53795.0,STARLINK-4742,PAYLOAD,2022-09-23 20:00:01,15.73188616,0.000145,53.2168,203.865,115.1929,53.4669,0.00053674,0.00075349,0.0,0 STARLINK-4742,1 53795U 22111Y   22266.83335648  .00075349  00000-0  53674-3 0  9990,2 53795  53.2168 203.8650 0001450 115.1929  53.4669 15.73188616  1941,6727.928000000001,91.534,350.76800000000014,348.81699999999995,0.0
53795.0,STARLINK-4742,PAYLOAD,2022-09-24 06:00:00,15.73131682,0.0001591,53.2168,201.8062,119.5703,249.9266,-2.2214e-05,-3.727e-05,0.0,0 STARLINK-4742,1 53795U 22111Y   22267.25001157 -.00003727  00000-0 -22214-4 0  9992,2 53795  53.2168 201.8062 0001591 119.5703 249.9266 15.73131682  2004,6728.09,91.537,351.025,348.885,0.0
53795.0,STARLINK-4742,PAYLOAD,2022-09-24 14:00:01,15.73064771,0.0001508,53.2173,200.1549,132.0239,326.3908,0.00074174,0.00104172,0.0,0 STARLINK-4742,1 53795U 22111Y   22267.58335648  .00104172  00000-0  74174-3 0  9998,2 53795  53.2173 200.1549 0001508 132.0239 326.3908 15.73064771  1303,6728.281,91.541,351.16,349.131,0.0
53795.0,STARLINK-4742,PAYLOAD,2022-09-24 22:00:00,15.73188375,0.0001575999999999,53.2176,198.5059,131.816,55.3173,0.0014330999999999,0.00205397,0.0,0 STARLINK-4742,1 53795U 22111Y   22267.91667824  .00205397  00000-0  14331-2 0  9998,2 53795  53.2176 198.5059 0001576 131.8160  55.3173 15.73188375  1307,6727.928000000001,91.534,350.85400000000016,348.733,0.0
53795.0,STARLINK-4742,PAYLOAD,2022-09-25 06:00:00,15.73332439,0.0001356,53.2174,196.8602,123.7346,152.3966,0.00010996,0.00014926,0.0,0 STARLINK-4742,1 53795U 22111Y   22268.25001157  .00014926  00000-0  10996-3 0  9997,2 53795  53.2174 196.8602 0001356 123.7346 152.3966 15.73332439  2167,6727.518,91.525,350.295,348.47,0.0
53795.0,STARLINK-4742,PAYLOAD,2022-09-25 14:00:01,15.73540521,0.0001438,53.2176,195.2111,123.1549,242.0234,-0.0020675,-0.00285307,0.0,0 STARLINK-4742,1 53795U 22111Y   22268.58334491 -.00285307  00000-0 -20675-2 0  9992,2 53795  53.2176 195.2111 0001438 123.1549 242.0234 15.73540521  1300,6726.925,91.513,349.75699999999995,347.82199999999995,0.0
53795.0,STARLINK-4742,PAYLOAD,2022-09-25 22:00:01,15.73204943,0.0001257,53.2175,193.5637,133.4946,320.9981,-8.42e-06,-1.802e-05,0.0,0 STARLINK-4742,1 53795U 22111Y   22268.91668981 -.00001802  00000-0 -84200-5 0  9996,2 53795  53.2175 193.5637 0001257 133.4946 320.9981 15.73204943  1307,6727.880999999999,91.533,350.592,348.9,0.0
53795.0,STARLINK-4742,PAYLOAD,2022-09-26 10:00:00,15.73272156,0.0001399,53.2172,191.0834,128.9759,278.8291,-0.000468,-0.00065991,0.0,0 STARLINK-4742,1 53795U 22111Y   22269.41667824 -.00065991  00000-0 -46800-3 0  9998,2 53795  53.2172 191.0834 0001399 128.9759 278.8291 15.73272156  2345,6727.689,91.529,350.496,348.61300000000006,0.0
53795.0,STARLINK-4742,PAYLOAD,2022-09-26 14:00:01,15.73247296,0.0001528,53.2176,190.2575,134.8561,137.4499,-0.00044832,-0.00063197,0.0,0 STARLINK-4742,1 53795U 22111Y   22269.58334491 -.00063197  00000-0 -44832-3 0  9996,2 53795  53.2176 190.2575 0001528 134.8561 137.4499 15.73247296  1305,6727.76,91.53,350.653,348.597,0.0
53795.0,STARLINK-4742,PAYLOAD,2022-09-26 22:00:00,15.73192675,0.0001558,53.2178,188.6086,132.7886,228.4729,6.4814e-06,2.89e-06,0.0,0 STARLINK-4742,1 53795U 22111Y   22269.91667824  .00000289  00000-0  64814-5 0  9997,2 53795  53.2178 188.6086 0001558 132.7886 228.4729 15.73192675  1302,6727.916,91.534,350.829,348.733,0.0
53795.0,STARLINK-4742,PAYLOAD,2022-09-27 06:00:00,15.73191649,0.0001404,53.2174,186.9606,125.8219,324.3653,7.442e-05,9.833e-05,0.0,0 STARLINK-4742,1 53795U 22111Y   22270.25001157  .00009833  00000-0  74420-4 0  9994,2 53795  53.2174 186.9606 0001404 125.8219 324.3653 15.73191649  2482,6727.919,91.534,350.72900000000016,348.839,0.0
53795.0,STARLINK-4742,PAYLOAD,2022-09-27 14:00:01,15.73173862,0.0001599,53.2173,185.3092,134.4178,44.7024,0.00076552,0.00108087,0.0,0 STARLINK-4742,1 53795U 22111Y   22270.58334491  .00108087  00000-0  76552-3 0  9998,2 53795  53.2173 185.3092 0001599 134.4178  44.7024 15.73173862  1300,6727.97,91.535,350.91,348.759,0.0
53795.0,STARLINK-4742,PAYLOAD,2022-09-27 22:00:01,15.73288234,0.0001559,53.2172,183.6607,136.1373,131.9841,-0.00013,-0.00018894,0.0,0 STARLINK-4742,1 53795U 22111Y   22270.91668981 -.00018894  00000-0 -13000-3 0  9996,2 53795  53.2172 183.6607 0001559 136.1373 131.9841 15.73288234  2581,6727.644,91.528,350.557,348.46,0.0
53795.0,STARLINK-4742,PAYLOAD,2022-09-28 14:00:01,15.73251015,0.0001443999999999,53.217,180.3606,145.2696,300.8165,-0.00056975,-0.00079999,0.0,0 STARLINK-4742,1 53795U 22111Y   22271.58334491 -.00079999  00000-0 -56975-3 0  9997,2 53795  53.2170 180.3606 0001444 145.2696 300.8165 15.73251015  1306,6727.75,91.53,350.586,348.64300000000014,0.0
53795.0,STARLINK-4742,PAYLOAD,2022-09-28 22:00:00,15.7332638,0.0001966999999999,53.2171,178.7121,143.2765,31.7609,-0.00073771,-0.00103456,0.0,0 STARLINK-4742,1 53795U 22111Y   22271.91667824 -.00103456  00000-0 -73771-3 0  9992,2 53795  53.2171 178.7121 0001967 143.2765  31.7609 15.73326380  1306,6727.535,91.526,350.723,348.077,0.0
53795.0,STARLINK-4742,PAYLOAD,2022-09-29 14:00:01,15.7322853,0.0002153,53.2165,175.4117,144.8459,208.2087,0.00080759,0.0011442,0.0,0 STARLINK-4742,1 53795U 22111Y   22272.58334491  .00114420  00000-0  80759-3 0  9992,2 53795  53.2165 175.4117 0002153 144.8459 208.2087 15.73228530  1302,6727.814,91.532,351.12699999999984,348.23,0.0
53795.0,STARLINK-4742,PAYLOAD,2022-09-29 22:00:00,15.73379359,0.0001955999999999,53.2164,173.7638,146.1625,295.873,-0.0012527999999999,-0.00174203,0.0,0 STARLINK-4742,1 53795U 22111Y   22272.91667824 -.00174203  00000-0 -12528-2 0  9993,2 53795  53.2164 173.7638 0001956 146.1625 295.8730 15.73379359  1303,6727.384,91.523,350.565,347.93300000000005,0.0
53795.0,STARLINK-4742,PAYLOAD,2022-09-30 06:00:02,15.73240635,0.0001725,53.2159,172.1146,149.9046,21.2748,-0.0012077,-0.00167091,0.0,0 STARLINK-4742,1 53795U 22111Y   22273.25002315 -.00167091  00000-0 -12077-2 0  9995,2 53795  53.2159 172.1146 0001725 149.9046  21.2748 15.73240635  2952,6727.779,91.531,350.805,348.4840000000001,0.0
53795.0,STARLINK-4742,PAYLOAD,2022-09-30 14:00:01,15.7305209,0.0002063,53.2162,170.4631,149.3245,110.702,0.00039422,0.0005472,0.0,0 STARLINK-4742,1 53795U 22111Y   22273.58334491  .00054720  00000-0  39422-3 0  9990,2 53795  53.2162 170.4631 0002063 149.3245 110.7020 15.73052090  1308,6728.316999999999,91.542,351.57,348.7940000000001,0.0
53795.0,STARLINK-4742,PAYLOAD,2022-09-30 22:00:00,15.73130582,0.0002032,53.2163,168.8151,145.9988,202.8308,0.00032576,0.0004521,0.0,0 STARLINK-4742,1 53795U 22111Y   22273.91667824  .00045210  00000-0  32576-3 0  9993,2 53795  53.2163 168.8151 0002032 145.9988 202.8308 15.73130582  1304,6728.093000000003,91.537,351.325,348.591,0.0
53795.0,STARLINK-4742,PAYLOAD,2022-10-01 14:00:01,15.73162732,0.0002097,53.216,165.515,151.9092,14.6905,6.3842e-05,8.334e-05,0.0,0 STARLINK-4742,1 53795U 22111Y   22274.58334491  .00008334  00000-0  63842-4 0  9995,2 53795  53.2160 165.5150 0002097 151.9092  14.6905 15.73162732  3168,6728.001,91.535,351.277,348.456,0.0
